{
  "type": "FeatureCollection",
  "name": "electricity_chennai",
  "crs": {
    "type": "name",
    "properties": {
      "name": "urn:ogc:def:crs:OGC:1.3:CRS84"
    }
  },
  "features": [
    {
      "type": "Feature",
      "properties": {
        "infrastructure_id": "ELEC-MAA-001",
        "infrastructure_type": "electricity",
        "line_id": "TANGEDCO-110KV-KAD-MYL",
        "name": "TANGEDCO 110kV Sub-Transmission Grid Corridor",
        "line_type": "High Voltage Overhead Transmission Corridor",
        "voltage": "110 kV",
        "circuit": "Double Circuit",
        "corridor_width": 18.0,
        "authority": "Tamil Nadu Generation and Distribution Corporation (TANGEDCO)",
        "status": "Operational Transmission Grid Corridor",
        "source": "OpenStreetMap Power & TANGEDCO Regional Substation Geo-Atlas",
        "source_type": "SUPPORTING_OPEN_DATA",
        "source_url": "https://www.tangedco.gov.in/",
        "source_date": "2026-01-05",
        "acquisition_date": "2026-02-10",
        "verification_status": "SUPPORTING",
        "license": "Open Data Commons Open Database License (ODbL) / OSM Attribution",
        "dataset_id": "chennai-tnagar",
        "dataset_version": "2026.1-OSM",
        "original_crs": "EPSG:4326",
        "processing_crs": "EPSG:4326",
        "geometry_crs": "EPSG:4326",
        "width_meters": 18.0,
        "buffer_radius_meters": 9.0,
        "is_active": true,
        "metadata": {
          "line_name": "TANGEDCO 110kV Sub-Transmission Grid Corridor",
          "line_type": "High Voltage Overhead Transmission",
          "voltage": "110 kV",
          "circuit": "Double Circuit",
          "corridor_width_m": 18.0,
          "authority": "TANGEDCO Transmission Wing"
        }
      },
      "geometry": {
        "type": "LineString",
        "coordinates": [
          [
            80.2265,
            13.03
          ],
          [
            80.227,
            13.036
          ],
          [
            80.228,
            13.042
          ],
          [
            80.229,
            13.048
          ],
          [
            80.2295,
            13.0535
          ]
        ]
      }
    },
    {
      "type": "Feature",
      "properties": {
        "infrastructure_id": "ELEC-MAA-002",
        "infrastructure_type": "electricity",
        "line_id": "TANGEDCO-33KV-GN-CHETTY",
        "name": "TANGEDCO 33kV T. Nagar Sub-Transmission Feeder Line",
        "line_type": "Sub-transmission Underground Cable Conduit",
        "voltage": "33 kV",
        "circuit": "Single Circuit Underground Cable",
        "corridor_width": 8.0,
        "authority": "TANGEDCO Distribution Division (South)",
        "status": "Operational",
        "source": "OpenStreetMap Power & GCC Utility Duct Survey",
        "source_type": "SUPPORTING_OPEN_DATA",
        "source_url": "https://www.tangedco.gov.in/",
        "source_date": "2026-01-05",
        "acquisition_date": "2026-02-10",
        "verification_status": "SUPPORTING",
        "license": "ODbL / OSM Attribution",
        "dataset_id": "chennai-tnagar",
        "dataset_version": "2026.1-OSM",
        "original_crs": "EPSG:4326",
        "processing_crs": "EPSG:4326",
        "geometry_crs": "EPSG:4326",
        "width_meters": 8.0,
        "buffer_radius_meters": 4.0,
        "is_active": true,
        "metadata": {
          "line_name": "TANGEDCO 33kV T. Nagar Sub-Transmission Feeder Line",
          "line_type": "Sub-transmission Underground Cable",
          "voltage": "33 kV",
          "circuit": "Single Circuit",
          "corridor_width_m": 8.0,
          "authority": "TANGEDCO Distribution Division (South)"
        }
      },
      "geometry": {
        "type": "LineString",
        "coordinates": [
          [
            80.2335,
            13.0485
          ],
          [
            80.236,
            13.046
          ],
          [
            80.2385,
            13.044
          ],
          [
            80.244,
            13.041
          ]
        ]
      }
    }
  ]
}