{
  "type": "FeatureCollection",
  "name": "bbmp_drainage_domlur",
  "crs": {
    "type": "name",
    "properties": {
      "name": "urn:ogc:def:crs:OGC:1.3:CRS84"
    }
  },
  "features": [
    {
      "type": "Feature",
      "properties": {
        "infrastructure_id": "INFRA-DR-BLR-001",
        "infrastructure_type": "drainage",
        "source_dataset_id": "bbmp_swd_master_2026",
        "source_feature_id": "BBMP-SWD-RJK-14",
        "source_name": "BBMP Stormwater Management Division",
        "source_date": "2026-01-20",
        "geometry_crs": "EPSG:4326",
        "verification_status": "VERIFIED",
        "metadata": {
          "drain_name": "Primary Rajakaluve SWD Corridor 14",
          "width_m": 6.5,
          "type": "Primary Open Drain",
          "buffer_zone_m": 15.0
        }
      },
      "geometry": {
        "type": "LineString",
        "coordinates": [
          [
            77.6372,
            12.9765
          ],
          [
            77.639,
            12.9772
          ],
          [
            77.6415,
            12.9778
          ],
          [
            77.6438,
            12.9786
          ],
          [
            77.6455,
            12.9792
          ]
        ]
      }
    },
    {
      "type": "Feature",
      "properties": {
        "infrastructure_id": "INFRA-DR-BLR-002",
        "infrastructure_type": "drainage",
        "source_dataset_id": "bbmp_swd_master_2026",
        "source_feature_id": "BBMP-SWD-SEC-28",
        "source_name": "BBMP Stormwater Management Division",
        "source_date": "2026-01-20",
        "geometry_crs": "EPSG:4326",
        "verification_status": "VERIFIED",
        "metadata": {
          "drain_name": "Secondary Stormwater Feeder 28",
          "width_m": 3.0,
          "type": "Secondary Masonry Drain",
          "buffer_zone_m": 5.0
        }
      },
      "geometry": {
        "type": "LineString",
        "coordinates": [
          [
            77.6402,
            12.9755
          ],
          [
            77.6403,
            12.9775
          ],
          [
            77.6404,
            12.9795
          ]
        ]
      }
    }
  ]
}