{
  "type": "FeatureCollection",
  "name": "rural_roads_cadastral",
  "crs": {
    "type": "name",
    "properties": {
      "name": "urn:ogc:def:crs:OGC:1.3:CRS84"
    }
  },
  "features": [
    {
      "type": "Feature",
      "properties": {
        "infrastructure_id": "INFRA-RD-CAD-001",
        "infrastructure_type": "road",
        "source_dataset_id": "pwd_rural_roads_2026",
        "source_feature_id": "PWD-SH-114-KM4",
        "source_name": "State Highways & PWD Cadastral Wing",
        "source_date": "2025-11-20",
        "geometry_crs": "EPSG:4326",
        "verification_status": "VERIFIED",
        "metadata": {
          "road_name": "District Road MDR-114",
          "width_m": 10.0,
          "surface": "Bituminous",
          "category": "Major District Road"
        }
      },
      "geometry": {
        "type": "LineString",
        "coordinates": [
          [
            79.893,
            12.9338
          ],
          [
            79.8945,
            12.9339
          ],
          [
            79.896,
            12.934
          ],
          [
            79.898,
            12.9341
          ]
        ]
      }
    }
  ]
}