{
  "type": "FeatureCollection",
  "name": "drainage_delhi",
  "crs": {
    "type": "name",
    "properties": {
      "name": "urn:ogc:def:crs:OGC:1.3:CRS84"
    }
  },
  "features": [
    {
      "type": "Feature",
      "properties": {
        "feature_id": "SWD-DEL-001",
        "infrastructure_id": "SWD-DEL-001",
        "drain_id": "DEL-SWD-CV-NORTH",
        "drain_name": "Central Vista North Canal & Stormwater Drain",
        "infrastructure_type": "drainage",
        "category": "Primary Stormwater Canal",
        "jurisdiction": "CPWD & NDMC Civil Drainage Wing",
        "authority": "CPWD Central Vista Engineering Division",
        "source_dataset_id": "drainage_delhi",
        "dataset_id": "delhi-urban",
        "source_name": "Central Vista Master Plan Drainage GIS",
        "verification_status": "VERIFIED",
        "width_meters": 8.0,
        "buffer_radius_meters": 15.0,
        "is_active": true,
        "metadata": {
          "drain_name": "Central Vista North Canal & Stormwater Drain",
          "category": "Primary Stormwater Canal",
          "buffer_m": 15.0,
          "width_m": 8.0,
          "cross_section": "Engineered Linear Water Body & Stormwater Collector"
        }
      },
      "geometry": {
        "type": "LineString",
        "coordinates": [
          [
            77.202,
            28.6148
          ],
          [
            77.2065,
            28.6145
          ],
          [
            77.2121,
            28.6142
          ],
          [
            77.2185,
            28.6138
          ],
          [
            77.2245,
            28.6135
          ],
          [
            77.2275,
            28.6134
          ]
        ]
      }
    },
    {
      "type": "Feature",
      "properties": {
        "feature_id": "SWD-DEL-002",
        "infrastructure_id": "SWD-DEL-002",
        "drain_id": "DEL-SWD-CV-SOUTH",
        "drain_name": "Central Vista South Canal & Stormwater Drain",
        "infrastructure_type": "drainage",
        "category": "Primary Stormwater Canal",
        "jurisdiction": "CPWD & NDMC Civil Drainage Wing",
        "authority": "CPWD Central Vista Engineering Division",
        "source_dataset_id": "drainage_delhi",
        "dataset_id": "delhi-urban",
        "source_name": "Central Vista Master Plan Drainage GIS",
        "verification_status": "VERIFIED",
        "width_meters": 8.0,
        "buffer_radius_meters": 15.0,
        "is_active": true,
        "metadata": {
          "drain_name": "Central Vista South Canal & Stormwater Drain",
          "category": "Primary Stormwater Canal",
          "buffer_m": 15.0,
          "width_m": 8.0,
          "cross_section": "Engineered Linear Water Body & Stormwater Collector"
        }
      },
      "geometry": {
        "type": "LineString",
        "coordinates": [
          [
            77.202,
            28.6137
          ],
          [
            77.2065,
            28.6134
          ],
          [
            77.2121,
            28.6131
          ],
          [
            77.2185,
            28.6127
          ],
          [
            77.2245,
            28.6125
          ],
          [
            77.2275,
            28.6124
          ]
        ]
      }
    },
    {
      "type": "Feature",
      "properties": {
        "feature_id": "SWD-DEL-003",
        "infrastructure_id": "SWD-DEL-003",
        "drain_id": "DEL-SWD-JANPATH-TRUNK",
        "drain_name": "Janpath Under-Pavement Stormwater Channel",
        "infrastructure_type": "drainage",
        "category": "Secondary Stormwater Drain",
        "jurisdiction": "NDMC Civil Drainage Wing",
        "authority": "NDMC Chief Engineer (Drainage)",
        "source_dataset_id": "drainage_delhi",
        "dataset_id": "delhi-urban",
        "source_name": "NDMC Drainage Asset Inventory",
        "verification_status": "VERIFIED",
        "width_meters": 4.0,
        "buffer_radius_meters": 10.0,
        "is_active": true,
        "metadata": {
          "drain_name": "Janpath Under-Pavement Stormwater Channel",
          "category": "Secondary Stormwater Drain",
          "buffer_m": 10.0,
          "width_m": 4.0
        }
      },
      "geometry": {
        "type": "LineString",
        "coordinates": [
          [
            77.2192,
            28.626
          ],
          [
            77.2188,
            28.6204
          ],
          [
            77.2186,
            28.6165
          ],
          [
            77.2185,
            28.6133
          ],
          [
            77.2181,
            28.6103
          ],
          [
            77.2179,
            28.6077
          ]
        ]
      }
    }
  ]
}