{
  "type": "FeatureCollection",
  "name": "roads_delhi",
  "crs": {
    "type": "name",
    "properties": {
      "name": "urn:ogc:def:crs:OGC:1.3:CRS84"
    }
  },
  "features": [
    {
      "type": "Feature",
      "properties": {
        "feature_id": "ROAD-DEL-001",
        "infrastructure_id": "ROAD-DEL-001",
        "road_id": "DEL-RD-KARTAVYA",
        "road_name": "Kartavya Path (Rajpath) Ceremonial Boulevard",
        "road_type": "Major Ceremonial Arterial",
        "hierarchy_level": "Major Arterial",
        "category": "National Ceremonial Corridor",
        "jurisdiction": "Central Public Works Department (CPWD) & NDMC",
        "authority": "CPWD Central Vista Project Division",
        "source_dataset_id": "roads_delhi",
        "dataset_id": "delhi-urban",
        "source_name": "CPWD Central Vista Master Plan GIS",
        "verification_status": "VERIFIED",
        "width_meters": 40.0,
        "buffer_radius_meters": 20.0,
        "is_active": true,
        "metadata": {
          "road_name": "Kartavya Path (Rajpath) Ceremonial Boulevard",
          "road_type": "Major Ceremonial Arterial",
          "hierarchy_level": "Major Arterial",
          "authority": "CPWD / NDMC",
          "width_m": 40.0,
          "carriageway_lanes": 6,
          "jurisdiction": "Central Vista Precinct, New Delhi"
        }
      },
      "geometry": {
        "type": "LineString",
        "coordinates": [
          [
            77.200186,
            28.614326
          ],
          [
            77.201555,
            28.614262
          ],
          [
            77.202052,
            28.614237
          ],
          [
            77.203531,
            28.61417
          ],
          [
            77.203716,
            28.614166
          ],
          [
            77.203757,
            28.614165
          ],
          [
            77.204045,
            28.614151
          ],
          [
            77.204407,
            28.614134
          ],
          [
            77.204931,
            28.614109
          ],
          [
            77.205319,
            28.614091
          ],
          [
            77.206496,
            28.614035
          ],
          [
            77.207537,
            28.613985
          ],
          [
            77.208665,
            28.613932
          ],
          [
            77.208773,
            28.613927
          ],
          [
            77.208983,
            28.613911
          ],
          [
            77.20919,
            28.613895
          ],
          [
            77.209511,
            28.613879
          ],
          [
            77.211916,
            28.613768
          ],
          [
            77.212107,
            28.61376
          ],
          [
            77.212205,
            28.613755
          ],
          [
            77.218467,
            28.613452
          ],
          [
            77.218528,
            28.613449
          ],
          [
            77.224765,
            28.613157
          ],
          [
            77.224849,
            28.613153
          ],
          [
            77.227666,
            28.613021
          ]
        ]
      }
    },
    {
      "type": "Feature",
      "properties": {
        "feature_id": "ROAD-DEL-002",
        "infrastructure_id": "ROAD-DEL-002",
        "road_id": "DEL-RD-JANPATH",
        "road_name": "Janpath Major Arterial Avenue",
        "road_type": "Major Arterial",
        "hierarchy_level": "Major Arterial",
        "category": "North-South Arterial Avenue",
        "jurisdiction": "New Delhi Municipal Council (NDMC)",
        "authority": "NDMC Roads & Public Works Directorate",
        "source_dataset_id": "roads_delhi",
        "dataset_id": "delhi-urban",
        "source_name": "NDMC Municipal GIS Network",
        "verification_status": "VERIFIED",
        "width_meters": 32.0,
        "buffer_radius_meters": 16.0,
        "is_active": true,
        "metadata": {
          "road_name": "Janpath Major Arterial Avenue",
          "road_type": "Major Arterial",
          "hierarchy_level": "Major Arterial",
          "authority": "NDMC Roads Directorate",
          "width_m": 32.0,
          "carriageway_lanes": 6,
          "jurisdiction": "NDMC Central Zone"
        }
      },
      "geometry": {
        "type": "LineString",
        "coordinates": [
          [
            77.219245,
            28.626314
          ],
          [
            77.219239,
            28.626219
          ],
          [
            77.219231,
            28.626091
          ],
          [
            77.219183,
            28.62536
          ],
          [
            77.219171,
            28.625166
          ],
          [
            77.219154,
            28.624904
          ],
          [
            77.219137,
            28.62465
          ],
          [
            77.219127,
            28.624488
          ],
          [
            77.219123,
            28.624431
          ],
          [
            77.219113,
            28.624275
          ],
          [
            77.219062,
            28.623496
          ],
          [
            77.219039,
            28.623133
          ],
          [
            77.218994,
            28.622448
          ],
          [
            77.218974,
            28.622139
          ],
          [
            77.218927,
            28.621407
          ],
          [
            77.218918,
            28.621269
          ],
          [
            77.218882,
            28.620722
          ],
          [
            77.218863,
            28.620425
          ],
          [
            77.218744,
            28.619346
          ],
          [
            77.218795,
            28.619287
          ],
          [
            77.218807,
            28.619209
          ],
          [
            77.218798,
            28.619034
          ],
          [
            77.218792,
            28.618961
          ],
          [
            77.218769,
            28.618682
          ],
          [
            77.218744,
            28.618374
          ],
          [
            77.218738,
            28.618303
          ],
          [
            77.218736,
            28.618254
          ],
          [
            77.218728,
            28.618022
          ],
          [
            77.218723,
            28.61795
          ],
          [
            77.218662,
            28.617061
          ],
          [
            77.218658,
            28.617032
          ],
          [
            77.218637,
            28.616849
          ],
          [
            77.218612,
            28.616797
          ],
          [
            77.218592,
            28.61657
          ],
          [
            77.218608,
            28.616534
          ],
          [
            77.218618,
            28.61648
          ],
          [
            77.218617,
            28.616337
          ],
          [
            77.218616,
            28.616046
          ],
          [
            77.21859,
            28.615458
          ],
          [
            77.218573,
            28.615174
          ],
          [
            77.218523,
            28.614355
          ],
          [
            77.218519,
            28.614292
          ],
          [
            77.21848,
            28.613664
          ],
          [
            77.218472,
            28.61353
          ],
          [
            77.218467,
            28.613452
          ],
          [
            77.218461,
            28.613377
          ],
          [
            77.218457,
            28.613278
          ],
          [
            77.218412,
            28.612762
          ],
          [
            77.218384,
            28.612332
          ],
          [
            77.218313,
            28.611502
          ],
          [
            77.218309,
            28.61146
          ],
          [
            77.218305,
            28.611395
          ],
          [
            77.218292,
            28.611166
          ],
          [
            77.218274,
            28.610694
          ],
          [
            77.218268,
            28.610531
          ],
          [
            77.218266,
            28.610478
          ],
          [
            77.218264,
            28.61041
          ],
          [
            77.218258,
            28.610383
          ],
          [
            77.218168,
            28.610122
          ],
          [
            77.218214,
            28.610042
          ],
          [
            77.218218,
            28.610011
          ],
          [
            77.218215,
            28.609953
          ],
          [
            77.218165,
            28.60886
          ],
          [
            77.218127,
            28.608172
          ],
          [
            77.218118,
            28.608018
          ],
          [
            77.218108,
            28.60796
          ],
          [
            77.218045,
            28.607847
          ],
          [
            77.217901,
            28.607717
          ]
        ]
      }
    },
    {
      "type": "Feature",
      "properties": {
        "feature_id": "ROAD-DEL-003",
        "infrastructure_id": "ROAD-DEL-003",
        "road_id": "DEL-RD-SANSAD",
        "road_name": "Sansad Marg (Parliament Street)",
        "road_type": "Major Arterial",
        "hierarchy_level": "Major Arterial",
        "category": "Parliamentary Institutional Corridor",
        "jurisdiction": "NDMC / Delhi Traffic Police",
        "authority": "NDMC Civil Engineering Department",
        "source_dataset_id": "roads_delhi",
        "dataset_id": "delhi-urban",
        "source_name": "NDMC Street Database",
        "verification_status": "VERIFIED",
        "width_meters": 28.0,
        "is_active": true,
        "metadata": {
          "road_name": "Sansad Marg (Parliament Street)",
          "road_type": "Major Arterial",
          "hierarchy_level": "Major Arterial",
          "width_m": 28.0,
          "carriageway_lanes": 4
        }
      },
      "geometry": {
        "type": "LineString",
        "coordinates": [
          [
            77.215576,
            28.627278
          ],
          [
            77.215405,
            28.62708
          ],
          [
            77.215359,
            28.627024
          ],
          [
            77.215296,
            28.626939
          ],
          [
            77.215251,
            28.626886
          ],
          [
            77.215081,
            28.626687
          ],
          [
            77.214955,
            28.626539
          ],
          [
            77.214937,
            28.626518
          ],
          [
            77.214641,
            28.626072
          ],
          [
            77.214277,
            28.625522
          ],
          [
            77.214215,
            28.625437
          ],
          [
            77.213981,
            28.625114
          ],
          [
            77.213811,
            28.624879
          ],
          [
            77.213741,
            28.624782
          ],
          [
            77.213454,
            28.624387
          ],
          [
            77.213394,
            28.624304
          ],
          [
            77.213315,
            28.624195
          ],
          [
            77.213156,
            28.623976
          ],
          [
            77.213112,
            28.623919
          ],
          [
            77.213054,
            28.62387
          ],
          [
            77.21291,
            28.623799
          ],
          [
            77.211828,
            28.622254
          ],
          [
            77.212098,
            28.622638
          ],
          [
            77.212353,
            28.623004
          ],
          [
            77.212364,
            28.623096
          ],
          [
            77.212367,
            28.623147
          ],
          [
            77.212362,
            28.623207
          ]
        ]
      }
    },
    {
      "type": "Feature",
      "properties": {
        "feature_id": "ROAD-DEL-004",
        "infrastructure_id": "ROAD-DEL-004",
        "road_id": "DEL-RD-RAFI",
        "road_name": "Rafi Marg Arterial",
        "road_type": "Secondary Arterial",
        "hierarchy_level": "Arterial Road Corridor",
        "category": "Institutional Corridor",
        "jurisdiction": "NDMC",
        "authority": "NDMC Roads Division",
        "source_dataset_id": "roads_delhi",
        "dataset_id": "delhi-urban",
        "source_name": "NDMC Master Plan GIS",
        "verification_status": "VERIFIED",
        "width_meters": 24.0,
        "is_active": true,
        "metadata": {
          "road_name": "Rafi Marg Arterial",
          "road_type": "Secondary Arterial",
          "hierarchy_level": "Arterial Road Corridor",
          "width_m": 24.0,
          "carriageway_lanes": 4
        }
      },
      "geometry": {
        "type": "LineString",
        "coordinates": [
          [
            77.213793,
            28.622642
          ],
          [
            77.213713,
            28.622543
          ],
          [
            77.213208,
            28.621917
          ],
          [
            77.213113,
            28.6218
          ],
          [
            77.21285,
            28.621474
          ],
          [
            77.212688,
            28.621273
          ],
          [
            77.212336,
            28.61769
          ],
          [
            77.212342,
            28.617708
          ],
          [
            77.212349,
            28.617758
          ],
          [
            77.212365,
            28.617872
          ],
          [
            77.212377,
            28.618024
          ],
          [
            77.212378,
            28.618056
          ],
          [
            77.212385,
            28.618177
          ],
          [
            77.212403,
            28.618531
          ],
          [
            77.212405,
            28.618572
          ],
          [
            77.212418,
            28.618715
          ],
          [
            77.21242,
            28.618805
          ],
          [
            77.212432,
            28.618887
          ],
          [
            77.212462,
            28.619283
          ],
          [
            77.212464,
            28.619318
          ],
          [
            77.21247,
            28.619414
          ],
          [
            77.21248,
            28.619575
          ],
          [
            77.212499,
            28.619777
          ],
          [
            77.212513,
            28.620108
          ],
          [
            77.212524,
            28.620355
          ],
          [
            77.212526,
            28.620396
          ],
          [
            77.212529,
            28.620609
          ],
          [
            77.21253,
            28.620708
          ],
          [
            77.212573,
            28.621005
          ],
          [
            77.212588,
            28.621139
          ],
          [
            77.212605,
            28.621234
          ],
          [
            77.212578,
            28.621309
          ],
          [
            77.21249,
            28.6214
          ],
          [
            77.211812,
            28.621771
          ],
          [
            77.211626,
            28.621871
          ],
          [
            77.212193,
            28.617334
          ],
          [
            77.212216,
            28.617399
          ],
          [
            77.21225,
            28.617482
          ],
          [
            77.212299,
            28.617575
          ],
          [
            77.212317,
            28.61763
          ],
          [
            77.212336,
            28.61769
          ],
          [
            77.212193,
            28.617334
          ],
          [
            77.2121,
            28.6152
          ],
          [
            77.21205,
            28.61365
          ],
          [
            77.21215,
            28.6118
          ],
          [
            77.212309,
            28.610651
          ]
        ]
      }
    },
    {
      "type": "Feature",
      "properties": {
        "feature_id": "ROAD-DEL-005",
        "infrastructure_id": "ROAD-DEL-005",
        "road_id": "DEL-RD-ASHOKA",
        "road_name": "Ashoka Road Diagonal Arterial",
        "road_type": "Diagonal Arterial",
        "hierarchy_level": "Arterial Road Corridor",
        "category": "Rotary Connector Arterial",
        "jurisdiction": "NDMC",
        "authority": "NDMC Highways Wing",
        "source_dataset_id": "roads_delhi",
        "dataset_id": "delhi-urban",
        "source_name": "NDMC Road Register",
        "verification_status": "VERIFIED",
        "width_meters": 28.0,
        "is_active": true,
        "metadata": {
          "road_name": "Ashoka Road Diagonal Arterial",
          "road_type": "Diagonal Arterial",
          "hierarchy_level": "Arterial Road Corridor",
          "width_m": 28.0,
          "carriageway_lanes": 4
        }
      },
      "geometry": {
        "type": "LineString",
        "coordinates": [
          [
            77.213157,
            28.62326
          ],
          [
            77.213237,
            28.62318
          ],
          [
            77.213413,
            28.623063
          ],
          [
            77.213833,
            28.622825
          ],
          [
            77.214279,
            28.622557
          ],
          [
            77.214304,
            28.622542
          ],
          [
            77.214341,
            28.62252
          ],
          [
            77.21461,
            28.622363
          ],
          [
            77.21527,
            28.621977
          ],
          [
            77.215379,
            28.621936
          ],
          [
            77.215412,
            28.621924
          ],
          [
            77.215689,
            28.621912
          ],
          [
            77.216118,
            28.621531
          ],
          [
            77.216207,
            28.621445
          ],
          [
            77.216257,
            28.621417
          ],
          [
            77.216533,
            28.621265
          ],
          [
            77.216716,
            28.621153
          ],
          [
            77.216831,
            28.621087
          ],
          [
            77.216944,
            28.621022
          ],
          [
            77.21761,
            28.62064
          ],
          [
            77.218032,
            28.620398
          ],
          [
            77.218107,
            28.620376
          ],
          [
            77.218211,
            28.620345
          ],
          [
            77.218416,
            28.620328
          ],
          [
            77.218507,
            28.620336
          ],
          [
            77.219459,
            28.619811
          ],
          [
            77.219489,
            28.619722
          ],
          [
            77.219561,
            28.61959
          ],
          [
            77.219637,
            28.619477
          ],
          [
            77.219752,
            28.619412
          ],
          [
            77.21987,
            28.619345
          ],
          [
            77.219983,
            28.619281
          ],
          [
            77.220467,
            28.619001
          ],
          [
            77.220693,
            28.618869
          ],
          [
            77.221255,
            28.618544
          ],
          [
            77.221318,
            28.618507
          ],
          [
            77.221757,
            28.61826
          ],
          [
            77.222023,
            28.61811
          ],
          [
            77.222072,
            28.618083
          ],
          [
            77.222247,
            28.617981
          ],
          [
            77.222468,
            28.617851
          ],
          [
            77.22267,
            28.617732
          ],
          [
            77.222815,
            28.617652
          ],
          [
            77.223228,
            28.617421
          ],
          [
            77.223582,
            28.617215
          ],
          [
            77.223915,
            28.617021
          ],
          [
            77.224388,
            28.616755
          ],
          [
            77.224467,
            28.61671
          ],
          [
            77.224572,
            28.616644
          ],
          [
            77.224684,
            28.616602
          ],
          [
            77.224752,
            28.616593
          ],
          [
            77.224807,
            28.616603
          ]
        ]
      }
    }
  ]
}