{
"type": "FeatureCollection",
"name": "cadastral_parcels",
"crs": { "type": "name", "properties": { "name": "urn:ogc:def:crs:OGC:1.3:CRS84" } },
"features": [
{ "type": "Feature", "properties": { "parcel_id": "CAD-01-001", "survey_no": "1001", "block_id": "BLK-01", "owner_name": "Ravi Raj", "land_use": "Residential", "area_sqm": 207.44, "source": "cadastral_survey", "dataset_version": "CAD-v1-2026" }, "geometry": { "type": "Polygon", "coordinates": [ [ [ 79.893706038641795, 12.933051268008517 ], [ 79.893819891479168, 12.933061763458488 ], [ 79.893826763216339, 12.933209831082866 ], [ 79.893706414656705, 12.93319911679812 ], [ 79.893706038641795, 12.933051268008517 ] ] ] } },
{ "type": "Feature", "properties": { "parcel_id": "CAD-01-002", "survey_no": "1002", "block_id": "BLK-01", "owner_name": "Priya Balan", "land_use": "Residential", "area_sqm": 190.0, "source": "cadastral_survey", "dataset_version": "CAD-v1-2026" }, "geometry": { "type": "Polygon", "coordinates": [ [ [ 79.893835114550541, 12.93305016189389 ], [ 79.89395603218253, 12.933058184514282 ], [ 79.893948265652838, 12.933203773176679 ], [ 79.893847484837551, 12.933190700560296 ], [ 79.893835114550541, 12.93305016189389 ] ] ] } },
{ "type": "Feature", "properties": { "parcel_id": "CAD-01-003", "survey_no": "1003", "block_id": "BLK-01", "owner_name": "Bala Murthy", "land_use": "Residential", "area_sqm": 180.89, "source": "cadastral_survey", "dataset_version": "CAD-v1-2026" }, "geometry": { "type": "Polygon", "coordinates": [ [ [ 79.893967235967011, 12.933062974367189 ], [ 79.894076004669728, 12.933055112339598 ], [ 79.894079631045543, 12.933199006958196 ], [ 79.893967483947463, 12.9331920110043 ], [ 79.893967235967011, 12.933062974367189 ] ] ] } },
{ "type": "Feature", "properties": { "parcel_id": "CAD-01-004", "survey_no": "1004", "block_id": "BLK-01", "owner_name": "Anitha Raj", "land_use": "Institutional", "area_sqm": 199.18, "source": "cadastral_survey", "dataset_version": "CAD-v1-2026" }, "geometry": { "type": "Polygon", "coordinates": [ [ [ 79.893706212259204, 12.933214404810695 ], [ 79.893825886819201, 12.933227763854168 ], [ 79.893820885782631, 12.933357361513458 ], [ 79.893705386262511, 12.933367048152135 ], [ 79.893706212259204, 12.933214404810695 ] ] ] } },
{ "type": "Feature", "properties": { "parcel_id": "CAD-01-005", "survey_no": "1005", "block_id": "BLK-01", "owner_name": "Suresh Krishnan", "land_use": "Commercial", "area_sqm": 204.2, "source": "cadastral_survey", "dataset_version": "CAD-v1-2026" }, "geometry": { "type": "Polygon", "coordinates": [ [ [ 79.893840239733493, 12.933218449841583 ], [ 79.893958408351139, 12.933212641608359 ], [ 79.893949777990045, 12.933368277501808 ], [ 79.893844917718312, 12.933368123198509 ], [ 79.893840239733493, 12.933218449841583 ] ] ] } },
{ "type": "Feature", "properties": { "parcel_id": "CAD-01-006", "survey_no": "1006", "block_id": "BLK-01", "owner_name": "Meena Iyer", "land_use": "Mixed Use", "area_sqm": 191.72, "source": "cadastral_survey", "dataset_version": "CAD-v1-2026" }, "geometry": { "type": "Polygon", "coordinates": [ [ [ 79.893967037242717, 12.933219179324849 ], [ 79.894078018673653, 12.933229699149601 ], [ 79.894084387648817, 12.93335907132416 ], [ 79.89396768926251, 12.933370482920434 ], [ 79.893967037242717, 12.933219179324849 ] ] ] } },
{ "type": "Feature", "properties": { "parcel_id": "CAD-02-001", "survey_no": "1007", "block_id": "BLK-02", "owner_name": "Bala Subramaniam", "land_use": "Residential", "area_sqm": 208.04, "source": "cadastral_survey", "dataset_version": "CAD-v1-2026" }, "geometry": { "type": "Polygon", "coordinates": [ [ [ 79.895037374963081, 12.933055518869425 ], [ 79.895159121963232, 12.933070472516873 ], [ 79.895148083303482, 12.933210291692456 ], [ 79.895038793012972, 12.933215451346902 ], [ 79.895037374963081, 12.933055518869425 ] ] ] } },
{ "type": "Feature", "properties": { "parcel_id": "CAD-02-002", "survey_no": "1008", "block_id": "BLK-02", "owner_name": "Suresh Shankar", "land_use": "Residential", "area_sqm": 177.68, "source": "cadastral_survey", "dataset_version": "CAD-v1-2026" }, "geometry": { "type": "Polygon", "coordinates": [ [ [ 79.895171285056577, 12.933057208955788 ], [ 79.895282218253655, 12.933071459208259 ], [ 79.895278574065316, 12.933201380828253 ], [ 79.895177861548277, 12.933207251618841 ], [ 79.895171285056577, 12.933057208955788 ] ] ] } },
{ "type": "Feature", "properties": { "parcel_id": "CAD-02-003", "survey_no": "1009", "block_id": "BLK-02", "owner_name": "Ravi Devi", "land_use": "Mixed Use", "area_sqm": 202.4, "source": "cadastral_survey", "dataset_version": "CAD-v1-2026" }, "geometry": { "type": "Polygon", "coordinates": [ [ [ 79.895301374223905, 12.933069245774533 ], [ 79.895408646439293, 12.933053891034822 ], [ 79.895407248360186, 12.933218781301782 ], [ 79.895299089193927, 12.933217780047107 ], [ 79.895301374223905, 12.933069245774533 ] ] ] } },
{ "type": "Feature", "properties": { "parcel_id": "CAD-02-004", "survey_no": "1010", "block_id": "BLK-02", "owner_name": "Vijay Murthy", "land_use": "Mixed Use", "area_sqm": 199.43, "source": "cadastral_survey", "dataset_version": "CAD-v1-2026" }, "geometry": { "type": "Polygon", "coordinates": [ [ [ 79.895041120276346, 12.933219488768339 ], [ 79.895153469140254, 12.93321659519553 ], [ 79.895149378813684, 12.933368662491546 ], [ 79.895047341484471, 12.933377390226264 ], [ 79.895041120276346, 12.933219488768339 ] ] ] } },
{ "type": "Feature", "properties": { "parcel_id": "CAD-02-005", "survey_no": "1011", "block_id": "BLK-02", "owner_name": "Ravi Krishnan", "land_use": "Residential", "area_sqm": 205.65, "source": "cadastral_survey", "dataset_version": "CAD-v1-2026" }, "geometry": { "type": "Polygon", "coordinates": [ [ [ 79.895162985968241, 12.9332277832944 ], [ 79.895285804789168, 12.933225750648743 ], [ 79.895274516849469, 12.933367460492992 ], [ 79.895163232867787, 12.933379565776495 ], [ 79.895162985968241, 12.9332277832944 ] ] ] } },
{ "type": "Feature", "properties": { "parcel_id": "CAD-02-006", "survey_no": "1012", "block_id": "BLK-02", "owner_name": "Geetha Rao", "land_use": "Residential", "area_sqm": 175.01, "source": "cadastral_survey", "dataset_version": "CAD-v1-2026" }, "geometry": { "type": "Polygon", "coordinates": [ [ [ 79.89530565471064, 12.93323388628037 ], [ 79.895414701398153, 12.933221953257503 ], [ 79.895401173133976, 12.933378935015647 ], [ 79.895305390102251, 12.933361336235167 ], [ 79.89530565471064, 12.93323388628037 ] ] ] } },
{ "type": "Feature", "properties": { "parcel_id": "CAD-02-007", "survey_no": "1013", "block_id": "BLK-02", "owner_name": "Karthik Balan", "land_use": "Residential", "area_sqm": 191.84, "source": "cadastral_survey", "dataset_version": "CAD-v1-2026" }, "geometry": { "type": "Polygon", "coordinates": [ [ [ 79.895044214424118, 12.933379240316636 ], [ 79.895149962297978, 12.933388832277274 ], [ 79.895145806974043, 12.933540475252498 ], [ 79.895037884017825, 12.933525683187694 ], [ 79.895044214424118, 12.933379240316636 ] ] ] } },
{ "type": "Feature", "properties": { "parcel_id": "CAD-02-008", "survey_no": "1014", "block_id": "BLK-02", "owner_name": "Deepa Kumar", "land_use": "Residential", "area_sqm": 184.9, "source": "cadastral_survey", "dataset_version": "CAD-v1-2026" }, "geometry": { "type": "Polygon", "coordinates": [ [ [ 79.895171304529313, 12.933386498785842 ], [ 79.895279748498893, 12.933380077240802 ], [ 79.89527423201271, 12.933529424176385 ], [ 79.895169666292233, 12.933526638621691 ], [ 79.895171304529313, 12.933386498785842 ] ] ] } },
{ "type": "Feature", "properties": { "parcel_id": "CAD-02-009", "survey_no": "1015", "block_id": "BLK-02", "owner_name": "Geetha Iyer", "land_use": "Mixed Use", "area_sqm": 198.58, "source": "cadastral_survey", "dataset_version": "CAD-v1-2026" }, "geometry": { "type": "Polygon", "coordinates": [ [ [ 79.895293319581256, 12.933397155713342 ], [ 79.895414472061447, 12.933379559411787 ], [ 79.895403464842857, 12.933537151272279 ], [ 79.895292512909819, 12.933525036488582 ], [ 79.895293319581256, 12.933397155713342 ] ] ] } },
{ "type": "Feature", "properties": { "parcel_id": "CAD-03-001", "survey_no": "1016", "block_id": "BLK-03", "owner_name": "Meena Reddy", "land_use": "Mixed Use", "area_sqm": 194.23, "source": "cadastral_survey", "dataset_version": "CAD-v1-2026" }, "geometry": { "type": "Polygon", "coordinates": [ [ [ 79.896361758670793, 12.933070844420527 ], [ 79.896476704248613, 12.933065951765492 ], [ 79.896484556400139, 12.933202899830011 ], [ 79.896370400707241, 12.933215263054345 ], [ 79.896361758670793, 12.933070844420527 ] ] ] } },
{ "type": "Feature", "properties": { "parcel_id": "CAD-03-002", "survey_no": "1017", "block_id": "BLK-03", "owner_name": "Lakshmi Kumar", "land_use": "Commercial", "area_sqm": 190.96, "source": "cadastral_survey", "dataset_version": "CAD-v1-2026" }, "geometry": { "type": "Polygon", "coordinates": [ [ [ 79.896491094619464, 12.933061249426009 ], [ 79.896608792952492, 12.933060631611109 ], [ 79.896602273091702, 12.933212260697525 ], [ 79.89650316584931, 12.933203438839755 ], [ 79.896491094619464, 12.933061249426009 ] ] ] } },
{ "type": "Feature", "properties": { "parcel_id": "CAD-03-003", "survey_no": "1018", "block_id": "BLK-03", "owner_name": "Priya Reddy", "land_use": "Residential", "area_sqm": 211.69, "source": "cadastral_survey", "dataset_version": "CAD-v1-2026" }, "geometry": { "type": "Polygon", "coordinates": [ [ [ 79.896618579378966, 12.933059654884104 ], [ 79.896741432185308, 12.933063279787703 ], [ 79.896735013469694, 12.933213228359111 ], [ 79.896631967317191, 12.933221929787054 ], [ 79.896618579378966, 12.933059654884104 ] ] ] } },
{ "type": "Feature", "properties": { "parcel_id": "CAD-03-004", "survey_no": "1019", "block_id": "BLK-03", "owner_name": "Karthik Pillai", "land_use": "Residential", "area_sqm": 180.8, "source": "cadastral_survey", "dataset_version": "CAD-v1-2026" }, "geometry": { "type": "Polygon", "coordinates": [ [ [ 79.896374838435534, 12.933236379374703 ], [ 79.896474816129341, 12.933234880997261 ], [ 79.896481559418831, 12.933381452235086 ], [ 79.896369840184832, 12.93337454189747 ], [ 79.896374838435534, 12.933236379374703 ] ] ] } },
{ "type": "Feature", "properties": { "parcel_id": "CAD-03-005", "survey_no": "1020", "block_id": "BLK-03", "owner_name": "Suresh Rao", "land_use": "Residential", "area_sqm": 197.19, "source": "cadastral_survey", "dataset_version": "CAD-v1-2026" }, "geometry": { "type": "Polygon", "coordinates": [ [ [ 79.89650078572619, 12.933221198204638 ], [ 79.896604391766914, 12.933221401622143 ], [ 79.896606380560627, 12.933384931667877 ], [ 79.896496755541861, 12.933365752575222 ], [ 79.89650078572619, 12.933221198204638 ] ] ] } },
{ "type": "Feature", "properties": { "parcel_id": "CAD-03-006", "survey_no": "1021", "block_id": "BLK-03", "owner_name": "Mohan Pillai", "land_use": "Residential", "area_sqm": 177.07, "source": "cadastral_survey", "dataset_version": "CAD-v1-2026" }, "geometry": { "type": "Polygon", "coordinates": [ [ [ 79.89662880845637, 12.933225520510064 ], [ 79.896730141153327, 12.933240163591714 ], [ 79.896731629641266, 12.933378411926846 ], [ 79.896627228864844, 12.933374166807759 ], [ 79.89662880845637, 12.933225520510064 ] ] ] } },
{ "type": "Feature", "properties": { "parcel_id": "CAD-03-007", "survey_no": "1022", "block_id": "BLK-03", "owner_name": "Lakshmi Raj", "land_use": "Residential", "area_sqm": 209.64, "source": "cadastral_survey", "dataset_version": "CAD-v1-2026" }, "geometry": { "type": "Polygon", "coordinates": [ [ [ 79.896362748163909, 12.933390622265907 ], [ 79.896480550221014, 12.933389041936936 ], [ 79.896473972863689, 12.933543479084964 ], [ 79.896359349777569, 12.933536623966088 ], [ 79.896362748163909, 12.933390622265907 ] ] ] } },
{ "type": "Feature", "properties": { "parcel_id": "CAD-04-001", "survey_no": "1023", "block_id": "BLK-04", "owner_name": "Ravi Devi", "land_use": "Mixed Use", "area_sqm": 185.75, "source": "cadastral_survey", "dataset_version": "CAD-v1-2026" }, "geometry": { "type": "Polygon", "coordinates": [ [ [ 79.893715312855747, 12.934366391282609 ], [ 79.893825075130025, 12.934355761134338 ], [ 79.893812422270699, 12.934510440313145 ], [ 79.893710889763881, 12.934505191229741 ], [ 79.893715312855747, 12.934366391282609 ] ] ] } },
{ "type": "Feature", "properties": { "parcel_id": "CAD-04-002", "survey_no": "1024", "block_id": "BLK-04", "owner_name": "Mohan Iyer", "land_use": "Commercial", "area_sqm": 183.02, "source": "cadastral_survey", "dataset_version": "CAD-v1-2026" }, "geometry": { "type": "Polygon", "coordinates": [ [ [ 79.893839873775676, 12.934368179324123 ], [ 79.893941783191877, 12.934350742194557 ], [ 79.893940651799994, 12.934504896873621 ], [ 79.893832780419928, 12.934505559396927 ], [ 79.893839873775676, 12.934368179324123 ] ] ] } },
{ "type": "Feature", "properties": { "parcel_id": "CAD-04-003", "survey_no": "1025", "block_id": "BLK-04", "owner_name": "Arun Devi", "land_use": "Vacant", "area_sqm": 219.85, "source": "cadastral_survey", "dataset_version": "CAD-v1-2026" }, "geometry": { "type": "Polygon", "coordinates": [ [ [ 79.893966362431854, 12.934353790769729 ], [ 79.894083672897878, 12.934349941204577 ], [ 79.894078417262975, 12.934511472425704 ], [ 79.893958063253464, 12.934500204129247 ], [ 79.893966362431854, 12.934353790769729 ] ] ] } },
{ "type": "Feature", "properties": { "parcel_id": "CAD-04-004", "survey_no": "1026", "block_id": "BLK-04", "owner_name": "Kavya Krishnan", "land_use": "Commercial", "area_sqm": 203.78, "source": "cadastral_survey", "dataset_version": "CAD-v1-2026" }, "geometry": { "type": "Polygon", "coordinates": [ [ [ 79.893706459054414, 12.934525294393923 ], [ 79.89381910059511, 12.934512887240778 ], [ 79.893824781289055, 12.934670137956312 ], [ 79.893701027957604, 12.934655400651607 ], [ 79.893706459054414, 12.934525294393923 ] ] ] } },
{ "type": "Feature", "properties": { "parcel_id": "CAD-04-005", "survey_no": "1027", "block_id": "BLK-04", "owner_name": "Kavya Shankar", "land_use": "Commercial", "area_sqm": 191.09, "source": "cadastral_survey", "dataset_version": "CAD-v1-2026" }, "geometry": { "type": "Polygon", "coordinates": [ [ [ 79.893828899073455, 12.934518413793084 ], [ 79.893954237423173, 12.934532128206184 ], [ 79.893938839502738, 12.934663391147401 ], [ 79.893838855196535, 12.934669674974778 ], [ 79.893828899073455, 12.934518413793084 ] ] ] } },
{ "type": "Feature", "properties": { "parcel_id": "CAD-04-006", "survey_no": "1028", "block_id": "BLK-04", "owner_name": "Priya Balan", "land_use": "Institutional", "area_sqm": 194.13, "source": "cadastral_survey", "dataset_version": "CAD-v1-2026" }, "geometry": { "type": "Polygon", "coordinates": [ [ [ 79.893973369667108, 12.934527376539572 ], [ 79.894083230298236, 12.934516716256375 ], [ 79.894069875621213, 12.934673539201368 ], [ 79.893959544806961, 12.934664661187332 ], [ 79.893973369667108, 12.934527376539572 ] ] ] } },
{ "type": "Feature", "properties": { "parcel_id": "CAD-04-007", "survey_no": "1029", "block_id": "BLK-04", "owner_name": "Geetha Iyer", "land_use": "Residential", "area_sqm": 191.01, "source": "cadastral_survey", "dataset_version": "CAD-v1-2026" }, "geometry": { "type": "Polygon", "coordinates": [ [ [ 79.893705245534221, 12.934687255521677 ], [ 79.893821259871359, 12.934678596060227 ], [ 79.89381102480391, 12.934833044475319 ], [ 79.893704184404214, 12.934818214778151 ], [ 79.893705245534221, 12.934687255521677 ] ] ] } },
{ "type": "Feature", "properties": { "parcel_id": "CAD-05-001", "survey_no": "1030", "block_id": "BLK-05", "owner_name": "Vijay Nair", "land_use": "Commercial", "area_sqm": 188.49, "source": "cadastral_survey", "dataset_version": "CAD-v1-2026" }, "geometry": { "type": "Polygon", "coordinates": [ [ [ 79.895032210456208, 12.934370115562517 ], [ 79.895141605924678, 12.934353834105286 ], [ 79.895140368355911, 12.934505098148234 ], [ 79.895040834636987, 12.934518534227941 ], [ 79.895032210456208, 12.934370115562517 ] ] ] } },
{ "type": "Feature", "properties": { "parcel_id": "CAD-05-002", "survey_no": "1031", "block_id": "BLK-05", "owner_name": "Lakshmi Krishnan", "land_use": "Residential", "area_sqm": 188.54, "source": "cadastral_survey", "dataset_version": "CAD-v1-2026" }, "geometry": { "type": "Polygon", "coordinates": [ [ [ 79.895172494345857, 12.934365086730216 ], [ 79.89528244833879, 12.934356419732206 ], [ 79.895282322781227, 12.934502450977106 ], [ 79.895171574716784, 12.934503867683404 ], [ 79.895172494345857, 12.934365086730216 ] ] ] } },
{ "type": "Feature", "properties": { "parcel_id": "CAD-05-003", "survey_no": "1032", "block_id": "BLK-05", "owner_name": "Karthik Nair", "land_use": "Residential", "area_sqm": 182.29, "source": "cadastral_survey", "dataset_version": "CAD-v1-2026" }, "geometry": { "type": "Polygon", "coordinates": [ [ [ 79.895290457434257, 12.934367104953441 ], [ 79.895404368608411, 12.934362791426731 ], [ 79.895404825747192, 12.934504622073991 ], [ 79.895296433984598, 12.934498672680387 ], [ 79.895290457434257, 12.934367104953441 ] ] ] } },
{ "type": "Feature", "properties": { "parcel_id": "CAD-05-004", "survey_no": "1033", "block_id": "BLK-05", "owner_name": "Anitha Murthy", "land_use": "Residential", "area_sqm": 192.87, "source": "cadastral_survey", "dataset_version": "CAD-v1-2026" }, "geometry": { "type": "Polygon", "coordinates": [ [ [ 79.895041723928614, 12.934529161803454 ], [ 79.895148110449355, 12.934518794702901 ], [ 79.895151363780016, 12.934671768103106 ], [ 79.895036903388487, 12.934667357214499 ], [ 79.895041723928614, 12.934529161803454 ] ] ] } },
{ "type": "Feature", "properties": { "parcel_id": "CAD-05-005", "survey_no": "1034", "block_id": "BLK-05", "owner_name": "Divya Shankar", "land_use": "Commercial", "area_sqm": 189.39, "source": "cadastral_survey", "dataset_version": "CAD-v1-2026" }, "geometry": { "type": "Polygon", "coordinates": [ [ [ 79.895171087965949, 12.934530884858127 ], [ 79.895281079991761, 12.93453000949906 ], [ 79.895270464241364, 12.934673158020701 ], [ 79.895154893396125, 12.934667004743774 ], [ 79.895171087965949, 12.934530884858127 ] ] ] } },
{ "type": "Feature", "properties": { "parcel_id": "CAD-05-006", "survey_no": "1035", "block_id": "BLK-05", "owner_name": "Mohan Raj", "land_use": "Mixed Use", "area_sqm": 198.09, "source": "cadastral_survey", "dataset_version": "CAD-v1-2026" }, "geometry": { "type": "Polygon", "coordinates": [ [ [ 79.895292267423926, 12.934526295235365 ], [ 79.895398704532923, 12.934527419079224 ], [ 79.895409443448585, 12.934679129646035 ], [ 79.895286765591592, 12.934663177337956 ], [ 79.895292267423926, 12.934526295235365 ] ] ] } },
{ "type": "Feature", "properties": { "parcel_id": "CAD-05-007", "survey_no": "1036", "block_id": "BLK-05", "owner_name": "Divya Devi", "land_use": "Commercial", "area_sqm": 180.38, "source": "cadastral_survey", "dataset_version": "CAD-v1-2026" }, "geometry": { "type": "Polygon", "coordinates": [ [ [ 79.89503693143179, 12.934683236448699 ], [ 79.895139701102778, 12.9346793271657 ], [ 79.895139779832093, 12.934833767290231 ], [ 79.895039244924874, 12.934824611893223 ], [ 79.89503693143179, 12.934683236448699 ] ] ] } },
{ "type": "Feature", "properties": { "parcel_id": "CAD-05-008", "survey_no": "1037", "block_id": "BLK-05", "owner_name": "Deepa Subramaniam", "land_use": "Mixed Use", "area_sqm": 196.01, "source": "cadastral_survey", "dataset_version": "CAD-v1-2026" }, "geometry": { "type": "Polygon", "coordinates": [ [ [ 79.895161167053516, 12.934687560110445 ], [ 79.895267826565274, 12.934694260357853 ], [ 79.89527953554078, 12.93484271974045 ], [ 79.895168814601504, 12.934840471186318 ], [ 79.895161167053516, 12.934687560110445 ] ] ] } }
]
}
