{
"type": "FeatureCollection",
"name": "municipal_parcels",
"crs": { "type": "name", "properties": { "name": "urn:ogc:def:crs:OGC:1.3:CRS84" } },
"features": [
{ "type": "Feature", "properties": { "parcel_id": "MUN-5001", "survey_no": "1001", "block_id": "BLK-01", "owner_name": "Ravi Raj", "land_use": "Residential", "area_sqm": 207.44, "source": "municipal_gis", "dataset_version": "MUN-GIS-v3-2026" }, "geometry": { "type": "Polygon", "coordinates": [ [ [ 79.893693703061857, 12.933033062098538 ], [ 79.893807504987251, 12.933044075898035 ], [ 79.893813675824902, 12.93319217321878 ], [ 79.893693379283604, 12.933180911006675 ], [ 79.893693703061857, 12.933033062098538 ] ] ] } },
{ "type": "Feature", "properties": { "parcel_id": "MUN-5002", "survey_no": "1002", "block_id": "BLK-01", "owner_name": "Priya Balan", "land_use": "Residential", "area_sqm": 190.0, "source": "municipal_gis", "dataset_version": "MUN-GIS-v3-2026" }, "geometry": { "type": "Polygon", "coordinates": [ [ [ 79.893841943995753, 12.933043931332714 ], [ 79.893962822350474, 12.933052504492561 ], [ 79.893954366823493, 12.933198056219712 ], [ 79.893853648970079, 12.933184524815861 ], [ 79.893841943995753, 12.933043931332714 ] ] ] } },
{ "type": "Feature", "properties": { "parcel_id": "MUN-5003", "survey_no": "1003", "block_id": "BLK-01", "owner_name": "Bala Murthy", "land_use": "Residential", "area_sqm": 180.89, "source": "municipal_gis", "dataset_version": "MUN-GIS-v3-2026" }, "geometry": { "type": "Polygon", "coordinates": [ [ [ 79.893974003343288, 12.933057345312839 ], [ 79.894082808083255, 12.93304997867296 ], [ 79.894085753356762, 12.933193888254742 ], [ 79.893973640581791, 12.933186381688932 ], [ 79.893974003343288, 12.933057345312839 ] ] ] } },
{ "type": "Feature", "properties": { "parcel_id": "MUN-5004", "survey_no": "1004", "block_id": "BLK-01", "owner_name": "Anitha Raj", "land_use": "Institutional", "area_sqm": 199.18, "source": "municipal_gis", "dataset_version": "MUN-GIS-v3-2026" }, "geometry": { "type": "Polygon", "coordinates": [ [ [ 79.893712265723636, 12.933207585494138 ], [ 79.893831875761762, 12.933221489358926 ], [ 79.893826261383794, 12.933351062848537 ], [ 79.893710717263573, 12.933360223429593 ], [ 79.893712265723636, 12.933207585494138 ] ] ] } },
{ "type": "Feature", "properties": { "parcel_id": "MUN-5005", "survey_no": "1004", "block_id": "BLK-01", "owner_name": "Suresh Krishnan", "land_use": "Commercial", "area_sqm": 204.2, "source": "municipal_gis", "dataset_version": "MUN-GIS-v3-2026" }, "geometry": { "type": "Polygon", "coordinates": [ [ [ 79.893846272604932, 12.933212240805943 ], [ 79.893964467437328, 12.933206970742924 ], [ 79.893955100533091, 12.933362565659184 ], [ 79.893850242124032, 12.933361933852508 ], [ 79.893846272604932, 12.933212240805943 ] ] ] } },
{ "type": "Feature", "properties": { "parcel_id": "MUN-5006", "survey_no": "1006", "block_id": "BLK-01", "owner_name": "Meena Iyer", "land_use": null, "area_sqm": 191.72, "source": "municipal_gis", "dataset_version": "MUN-GIS-v3-2026" }, "geometry": { "type": "Polygon", "coordinates": [ [ [ 79.893973065292272, 12.933213547682589 ], [ 79.894083995733936, 12.933224572773158 ], [ 79.894089752312112, 12.933353972556384 ], [ 79.893973001173748, 12.933364852617093 ], [ 79.893973065292272, 12.933213547682589 ] ] ] } },
{ "type": "Feature", "properties": { "parcel_id": "MUN-5007", "survey_no": "1007", "block_id": "BLK-02", "owner_name": "Bala Subramaniam", "land_use": "Residential", "area_sqm": 183.07, "source": "municipal_gis", "dataset_version": "MUN-GIS-v3-2026" }, "geometry": { "type": "Polygon", "coordinates": [ [ [ 79.895035880557373, 12.933069424259536 ], [ 79.89515003798607, 12.933083848841925 ], [ 79.895139209093841, 12.933214974044034 ], [ 79.895036668872166, 12.933219457903196 ], [ 79.895035880557373, 12.933069424259536 ] ] ] } },
{ "type": "Feature", "properties": { "parcel_id": "MUN-5008", "survey_no": "1008", "block_id": "BLK-02", "owner_name": "Suresh Shankar", "land_use": "Residential", "area_sqm": 177.68, "source": "municipal_gis", "dataset_version": "MUN-GIS-v3-2026" }, "geometry": { "type": "Polygon", "coordinates": [ [ [ 79.895166256633516, 12.933066555446807 ], [ 79.895277137664607, 12.933081191131681 ], [ 79.895273024205224, 12.933211099271389 ], [ 79.895172291110583, 12.933216620022774 ], [ 79.895166256633516, 12.933066555446807 ] ] ] } },
{ "type": "Feature", "properties": { "parcel_id": "MUN-5009", "survey_no": "1009", "block_id": "BLK-02", "owner_name": "Ravi Devi", "land_use": "Mixed Use", "area_sqm": 202.4, "source": "municipal_gis", "dataset_version": "MUN-GIS-v3-2026" }, "geometry": { "type": "Polygon", "coordinates": [ [ [ 79.895296301510527, 12.933079044283865 ], [ 79.89540362852, 12.933064062439593 ], [ 79.895401634844504, 12.933228946812509 ], [ 79.895293479969695, 12.93322756968271 ], [ 79.895296301510527, 12.933079044283865 ] ] ] } },
{ "type": "Feature", "properties": { "parcel_id": "MUN-5010", "survey_no": "1010", "block_id": "BLK-02", "owner_name": "Vijay Murthy", "land_use": "Mixed Use", "area_sqm": 199.43, "source": "municipal_gis", "dataset_version": "MUN-GIS-v3-2026" }, "geometry": { "type": "Polygon", "coordinates": [ [ [ 79.895072356157357, 12.933233058533951 ], [ 79.895184714774985, 12.933230555405254 ], [ 79.895180075208387, 12.93338260753386 ], [ 79.895078006988456, 12.933390980621738 ], [ 79.895072356157357, 12.933233058533951 ] ] ] } },
{ "type": "Feature", "properties": { "parcel_id": "MUN-5011", "survey_no": "1011", "block_id": "BLK-02", "owner_name": "Ravi Krishnan", "land_use": "Residential", "area_sqm": 205.65, "source": "municipal_gis", "dataset_version": "MUN-GIS-v3-2026" }, "geometry": { "type": "Polygon", "coordinates": [ [ [ 79.895157341460262, 12.933237099872878 ], [ 79.895280166856935, 12.933235494067516 ], [ 79.895268367112635, 12.933377163793395 ], [ 79.895157040099491, 12.933388882259946 ], [ 79.895157341460262, 12.933237099872878 ] ] ] } },
{ "type": "Feature", "properties": { "parcel_id": "MUN-5012", "survey_no": "1012", "block_id": "BLK-02", "owner_name": "Geetha Rao", "land_use": "Residential", "area_sqm": 175.01, "source": "municipal_gis", "dataset_version": "MUN-GIS-v3-2026" }, "geometry": { "type": "Polygon", "coordinates": [ [ [ 79.895278774768897, 12.933231092152131 ], [ 79.895387863874475, 12.933219538178466 ], [ 79.895373768643594, 12.933376471934615 ], [ 79.895278049785546, 12.933358540386255 ], [ 79.895278774768897, 12.933231092152131 ] ] ] } },
{ "type": "Feature", "properties": { "parcel_id": "MUN-5013", "survey_no": "1013", "block_id": "BLK-02", "owner_name": "Karthik Balan", "land_use": null, "area_sqm": 191.84, "source": "municipal_gis", "dataset_version": "MUN-GIS-v3-2026" }, "geometry": { "type": "Polygon", "coordinates": [ [ [ 79.895038023574372, 12.933388143181931 ], [ 79.895143736140653, 12.93339810258384 ], [ 79.895139033087077, 12.933549730166002 ], [ 79.895031164235618, 12.933534563133612 ], [ 79.895038023574372, 12.933388143181931 ] ] ] } },
{ "type": "Feature", "properties": { "parcel_id": "MUN-5014", "survey_no": "1014", "block_id": "BLK-02", "owner_name": "Deepa Kumar", "land_use": "Residential", "area_sqm": 162.72, "source": "municipal_gis", "dataset_version": "MUN-GIS-v3-2026" }, "geometry": { "type": "Polygon", "coordinates": [ [ [ 79.895168353130202, 12.933400110678846 ], [ 79.895270103717266, 12.933394440310126 ], [ 79.895264422764853, 12.933534521290023 ], [ 79.895166341476951, 12.93353156733165 ], [ 79.895168353130202, 12.933400110678846 ] ] ] } },
{ "type": "Feature", "properties": { "parcel_id": "MUN-5015", "survey_no": "1015", "block_id": "BLK-02", "owner_name": "Geetha Iyer", "land_use": "Mixed Use", "area_sqm": 198.58, "source": "municipal_gis", "dataset_version": "MUN-GIS-v3-2026" }, "geometry": { "type": "Polygon", "coordinates": [ [ [ 79.895287062463893, 12.933406924171692 ], [ 79.895408277748487, 12.9333897490172 ], [ 79.89539670135477, 12.933547301635141 ], [ 79.895285793874294, 12.933534801340519 ], [ 79.895287062463893, 12.933406924171692 ] ] ] } },
{ "type": "Feature", "properties": { "parcel_id": "MUN-5016", "survey_no": "1016", "block_id": "BLK-03", "owner_name": "Meena Reddy", "land_use": "Mixed Use", "area_sqm": 194.23, "source": "municipal_gis", "dataset_version": "MUN-GIS-v3-2026" }, "geometry": { "type": "Polygon", "coordinates": [ [ [ 79.896366048394214, 12.933077705019667 ], [ 79.896480982270134, 12.933072554593675 ], [ 79.89648915362497, 12.93320948469067 ], [ 79.896375027045721, 12.933222103894993 ], [ 79.896366048394214, 12.933077705019667 ] ] ] } },
{ "type": "Feature", "properties": { "parcel_id": "MUN-5017", "survey_no": "1017", "block_id": "BLK-03", "owner_name": "Lakshmi Kumar", "land_use": "Commercial", "area_sqm": 190.96, "source": "municipal_gis", "dataset_version": "MUN-GIS-v3-2026" }, "geometry": { "type": "Polygon", "coordinates": [ [ [ 79.896495361642707, 12.933067819993786 ], [ 79.896613058231154, 12.933066938223266 ], [ 79.896606891832079, 12.933218581535321 ], [ 79.896507764282433, 12.933209981964364 ], [ 79.896495361642707, 12.933067819993786 ] ] ] } },
{ "type": "Feature", "properties": { "parcel_id": "MUN-5018", "survey_no": "1018", "block_id": "BLK-03", "owner_name": "Priya Reddy", "land_use": "Residential", "area_sqm": 186.29, "source": "municipal_gis", "dataset_version": "MUN-GIS-v3-2026" }, "geometry": { "type": "Polygon", "coordinates": [ [ [ 79.896626713995545, 12.933070737928261 ], [ 79.896741967773664, 12.933073879922675 ], [ 79.896736274384253, 12.933214557287107 ], [ 79.896639627803836, 12.933222936717401 ], [ 79.896626713995545, 12.933070737928261 ] ] ] } },
{ "type": "Feature", "properties": { "parcel_id": "MUN-5019", "survey_no": "1019", "block_id": "BLK-03", "owner_name": "Karthik Pillai", "land_use": null, "area_sqm": 180.8, "source": "municipal_gis", "dataset_version": "MUN-GIS-v3-2026" }, "geometry": { "type": "Polygon", "coordinates": [ [ [ 79.896379513984357, 12.933243210207868 ], [ 79.896479487926968, 12.933241487618469 ], [ 79.896486572854542, 12.93338804335044 ], [ 79.896374837801474, 12.933381383579018 ], [ 79.896379513984357, 12.933243210207868 ] ] ] } },
{ "type": "Feature", "properties": { "parcel_id": "MUN-5020", "survey_no": "1020", "block_id": "BLK-03", "owner_name": "Suresh Rao", "land_use": "Residential", "area_sqm": 197.19, "source": "municipal_gis", "dataset_version": "MUN-GIS-v3-2026" }, "geometry": { "type": "Polygon", "coordinates": [ [ [ 79.896529202591665, 12.933241877034853 ], [ 79.896632808845183, 12.933241848089837 ], [ 79.89663517883487, 12.933405373248991 ], [ 79.89652550938473, 12.933386440067355 ], [ 79.896529202591665, 12.933241877034853 ] ] ] } },
{ "type": "Feature", "properties": { "parcel_id": "MUN-5021", "survey_no": "1021", "block_id": "BLK-03", "owner_name": "Mohan Pillai", "land_use": "Residential", "area_sqm": 177.07, "source": "municipal_gis", "dataset_version": "MUN-GIS-v3-2026" }, "geometry": { "type": "Polygon", "coordinates": [ [ [ 79.896633458036519, 12.933231781803443 ], [ 79.896734824604039, 12.933246197592132 ], [ 79.896736635343117, 12.93338444222789 ], [ 79.896632224941527, 12.933380431255248 ], [ 79.896633458036519, 12.933231781803443 ] ] ] } },
{ "type": "Feature", "properties": { "parcel_id": "MUN-5022", "survey_no": "1022", "block_id": "BLK-03", "owner_name": "Lakshmi Raj", "land_use": "Residential", "area_sqm": 209.64, "source": "municipal_gis", "dataset_version": "MUN-GIS-v3-2026" }, "geometry": { "type": "Polygon", "coordinates": [ [ [ 79.896367783282031, 12.933397479810425 ], [ 79.896485581350859, 12.933395635295746 ], [ 79.896479364001848, 12.933550086791055 ], [ 79.896364725232829, 12.933543488750578 ], [ 79.896367783282031, 12.933397479810425 ] ] ] } },
{ "type": "Feature", "properties": { "parcel_id": "MUN-5023", "survey_no": "1023", "block_id": "BLK-04", "owner_name": "Ravi Devi", "land_use": "Mixed Use", "area_sqm": 185.75, "source": "municipal_gis", "dataset_version": "MUN-GIS-v3-2026" }, "geometry": { "type": "Polygon", "coordinates": [ [ [ 79.89372119814665, 12.934360149441817 ], [ 79.893830895577508, 12.934348893747286 ], [ 79.893819159454878, 12.934503642444652 ], [ 79.893717597562812, 12.934498972259917 ], [ 79.89372119814665, 12.934360149441817 ] ] ] } },
{ "type": "Feature", "properties": { "parcel_id": "MUN-5024", "survey_no": "1024", "block_id": "BLK-04", "owner_name": "Mohan Iyer", "land_use": "Commercial", "area_sqm": 183.02, "source": "municipal_gis", "dataset_version": "MUN-GIS-v3-2026" }, "geometry": { "type": "Polygon", "coordinates": [ [ [ 79.893845767554467, 12.934361227364194 ], [ 79.893947571926333, 12.934343209570365 ], [ 79.893947353968414, 12.934497368096002 ], [ 79.893839488338784, 12.93449864555442 ], [ 79.893845767554467, 12.934361227364194 ] ] ] } },
{ "type": "Feature", "properties": { "parcel_id": "MUN-5025", "survey_no": "1025", "block_id": "BLK-04", "owner_name": "Arun Devi", "land_use": "Vacant", "area_sqm": 219.85, "source": "municipal_gis", "dataset_version": "MUN-GIS-v3-2026" }, "geometry": { "type": "Polygon", "coordinates": [ [ [ 79.89397216881423, 12.93434611797429 ], [ 79.894089454485538, 12.934341599718071 ], [ 79.8940851560628, 12.934503158172435 ], [ 79.89396473732134, 12.934492576172767 ], [ 79.89397216881423, 12.93434611797429 ] ] ] } },
{ "type": "Feature", "properties": { "parcel_id": "MUN-5026", "survey_no": "1026", "block_id": "BLK-04", "owner_name": "Kavya Krishnan", "land_use": "Commercial", "area_sqm": 203.78, "source": "municipal_gis", "dataset_version": "MUN-GIS-v3-2026" }, "geometry": { "type": "Polygon", "coordinates": [ [ [ 79.893713286045909, 12.934519100342923 ], [ 79.893825852165151, 12.934506051259598 ], [ 79.893832464524039, 12.934663266935557 ], [ 79.893708625962304, 12.934649235364795 ], [ 79.893713286045909, 12.934519100342923 ] ] ] } },
{ "type": "Feature", "properties": { "parcel_id": "MUN-5027", "survey_no": "1027", "block_id": "BLK-04", "owner_name": "Kavya Shankar", "land_use": "Commercial", "area_sqm": 191.09, "source": "municipal_gis", "dataset_version": "MUN-GIS-v3-2026" }, "geometry": { "type": "Polygon", "coordinates": [ [ [ 79.893835683224339, 12.934511521860038 ], [ 79.893961100716055, 12.934524521520661 ], [ 79.893946480831303, 12.93465587002478 ], [ 79.893846535450152, 12.934662723730206 ], [ 79.893835683224339, 12.934511521860038 ] ] ] } },
{ "type": "Feature", "properties": { "parcel_id": "MUN-5028", "survey_no": "1028", "block_id": "BLK-04", "owner_name": "Priya Balan", "land_use": "Institutional", "area_sqm": 194.13, "source": "municipal_gis", "dataset_version": "MUN-GIS-v3-2026" }, "geometry": { "type": "Polygon", "coordinates": [ [ [ 79.893980204481181, 12.934519660866407 ], [ 79.894090000087985, 12.934508374476708 ], [ 79.89407757486336, 12.934665270905001 ], [ 79.893967193310658, 12.934657022007787 ], [ 79.893980204481181, 12.934519660866407 ] ] ] } },
{ "type": "Feature", "properties": { "parcel_id": "MUN-5029", "survey_no": "1029", "block_id": "BLK-04", "owner_name": "Geetha Iyer", "land_use": "Residential", "area_sqm": 191.01, "source": "municipal_gis", "dataset_version": "MUN-GIS-v3-2026" }, "geometry": { "type": "Polygon", "coordinates": [ [ [ 79.893713032218045, 12.934681065653653 ], [ 79.893828993282909, 12.934671744971316 ], [ 79.89381967354629, 12.934826249125754 ], [ 79.89371274708266, 12.93481202874792 ], [ 79.893713032218045, 12.934681065653653 ] ] ] } },
{ "type": "Feature", "properties": { "parcel_id": "MUN-5030", "survey_no": "1030", "block_id": "BLK-05", "owner_name": "Vijay Nair", "land_use": "Commercial", "area_sqm": 188.49, "source": "municipal_gis", "dataset_version": "MUN-GIS-v3-2026" }, "geometry": { "type": "Polygon", "coordinates": [ [ [ 79.895005836577397, 12.93435660375418 ], [ 79.89511520378224, 12.934340140671482 ], [ 79.895114227280885, 12.934491406551519 ], [ 79.895014716900064, 12.934505007885559 ], [ 79.895005836577397, 12.93435660375418 ] ] ] } },
{ "type": "Feature", "properties": { "parcel_id": "MUN-5031", "survey_no": "1031", "block_id": "BLK-05", "owner_name": "Lakshmi Krsnhan", "land_use": "Residential", "area_sqm": 188.54, "source": "municipal_gis", "dataset_version": "MUN-GIS-v3-2026" }, "geometry": { "type": "Polygon", "coordinates": [ [ [ 79.895178293012407, 12.934369560731053 ], [ 79.895288231890518, 12.934360711156179 ], [ 79.895288358385301, 12.934506742400531 ], [ 79.895177612922694, 12.934508343012705 ], [ 79.895178293012407, 12.934369560731053 ] ] ] } },
{ "type": "Feature", "properties": { "parcel_id": "MUN-5032", "survey_no": "1032", "block_id": "BLK-05", "owner_name": "Krathi Nair", "land_use": "Residential", "area_sqm": 182.29, "source": "municipal_gis", "dataset_version": "MUN-GIS-v3-2026" }, "geometry": { "type": "Polygon", "coordinates": [ [ [ 79.89529625941752, 12.934371383062235 ], [ 79.895410162985314, 12.934366880381141 ], [ 79.895410864925353, 12.934508710066247 ], [ 79.895302463047329, 12.9345029406762 ], [ 79.89529625941752, 12.934371383062235 ] ] ] } },
{ "type": "Feature", "properties": { "parcel_id": "MUN-5033", "survey_no": "1033", "block_id": "BLK-05", "owner_name": "Anitha Murthy", "land_use": "Residential", "area_sqm": 192.87, "source": "municipal_gis", "dataset_version": "MUN-GIS-v3-2026" }, "geometry": { "type": "Polygon", "coordinates": [ [ [ 79.895047805976063, 12.934533852726362 ], [ 79.895154174452713, 12.934523308975525 ], [ 79.895157691813552, 12.934676276754285 ], [ 79.895043223970461, 12.934672055944564 ], [ 79.895047805976063, 12.934533852726362 ] ] ] } },
{ "type": "Feature", "properties": { "parcel_id": "MUN-5034", "survey_no": "1034", "block_id": "BLK-05", "owner_name": "Divya Shankar", "land_use": "Commercial", "area_sqm": 189.39, "source": "municipal_gis", "dataset_version": "MUN-GIS-v3-2026" }, "geometry": { "type": "Polygon", "coordinates": [ [ [ 79.895177172804637, 12.934535360957048 ], [ 79.89528716316407, 12.93453430294681 ], [ 79.895276794505577, 12.934677468892025 ], [ 79.895161213203025, 12.9346715075405 ], [ 79.895177172804637, 12.934535360957048 ] ] ] } },
{ "type": "Feature", "properties": { "parcel_id": "MUN-5035", "survey_no": "1035", "block_id": "BLK-05", "owner_name": "Mohan Raj", "land_use": "Mixed Use", "area_sqm": 198.09, "source": "municipal_gis", "dataset_version": "MUN-GIS-v3-2026" }, "geometry": { "type": "Polygon", "coordinates": [ [ [ 79.895298344169547, 12.934530570110613 ], [ 79.895404783067747, 12.934531517203718 ], [ 79.895415783823381, 12.934683209720355 ], [ 79.895293078605917, 12.934667461153595 ], [ 79.895298344169547, 12.934530570110613 ] ] ] } },
{ "type": "Feature", "properties": { "parcel_id": "MUN-5036", "survey_no": "1036", "block_id": "BLK-05", "owner_name": "Divya Devi", "land_use": "Commercial", "area_sqm": 180.38, "source": "municipal_gis", "dataset_version": "MUN-GIS-v3-2026" }, "geometry": { "type": "Polygon", "coordinates": [ [ [ 79.895043279421571, 12.934687935109462 ], [ 79.895146042199883, 12.934683855173063 ], [ 79.895146387495814, 12.9348382949458 ], [ 79.895045836928219, 12.934829306509846 ], [ 79.895043279421571, 12.934687935109462 ] ] ] } },
{ "type": "Feature", "properties": { "parcel_id": "MUN-5037", "survey_no": "1037", "block_id": "BLK-05", "owner_name": "Deepa Subramaniam", "land_use": "Mixed Use", "area_sqm": 196.01, "source": "municipal_gis", "dataset_version": "MUN-GIS-v3-2026" }, "geometry": { "type": "Polygon", "coordinates": [ [ [ 79.89516752233051, 12.934692052459733 ], [ 79.895274193256256, 12.934698575579089 ], [ 79.895286158459086, 12.9348470153053 ], [ 79.895175433795259, 12.93484495061724 ], [ 79.89516752233051, 12.934692052459733 ] ] ] } },
{ "type": "Feature", "properties": { "parcel_id": "MUN-NEW-9001", "survey_no": "9999", "block_id": "BLK-EXTRA", "owner_name": "Ravi Iyer", "land_use": "Vacant", "area_sqm": 96.44, "source": "municipal_gis", "dataset_version": "MUN-GIS-v3-2026" }, "geometry": { "type": "Polygon", "coordinates": [ [ [ 79.897407973657891, 12.933455602213783 ], [ 79.897494350848518, 12.933459269137215 ], [ 79.89749631752025, 12.933553397342704 ], [ 79.897414280867579, 12.933552589185783 ], [ 79.897407973657891, 12.933455602213783 ] ] ] } }
]
}
