{
"type": "FeatureCollection",
"name": "drone_building_footprints",
"crs": { "type": "name", "properties": { "name": "urn:ogc:def:crs:OGC:1.3:CRS84" } },
"features": [
{ "type": "Feature", "properties": { "footprint_id": "BLD-0001", "source_tile_id": "TILE-BLK-01", "model": "UNet-v1", "confidence": 0.845, "feature_type": "building" }, "geometry": { "type": "Polygon", "coordinates": [ [ [ 79.893731308014381, 12.933084214358979 ], [ 79.893797255240315, 12.933087186313772 ], [ 79.893796592194406, 12.933175916761442 ], [ 79.893730485681957, 12.933174868169417 ], [ 79.893731308014381, 12.933084214358979 ] ] ] } },
{ "type": "Feature", "properties": { "footprint_id": "BLD-0002", "source_tile_id": "TILE-BLK-01", "model": "SAM-ViT-B", "confidence": 0.911, "feature_type": "building" }, "geometry": { "type": "Polygon", "coordinates": [ [ [ 79.893863276546824, 12.93308100368629 ], [ 79.893929565593439, 12.933079780736719 ], [ 79.89393139879887, 12.933164583707505 ], [ 79.893864971949924, 12.933168582867328 ], [ 79.893863276546824, 12.93308100368629 ] ] ] } },
{ "type": "Feature", "properties": { "footprint_id": "BLD-0003", "source_tile_id": "TILE-BLK-01", "model": "SAM-ViT-B", "confidence": 0.823, "feature_type": "building" }, "geometry": { "type": "Polygon", "coordinates": [ [ [ 79.893864924450938, 12.933247213169606 ], [ 79.893932528751023, 12.933250878804053 ], [ 79.893931132456245, 12.933331892551063 ], [ 79.893863953048907, 12.933330997863736 ], [ 79.893864924450938, 12.933247213169606 ] ] ] } },
{ "type": "Feature", "properties": { "footprint_id": "BLD-0004", "source_tile_id": "TILE-BLK-02", "model": "SAM-ViT-B", "confidence": 0.923, "feature_type": "building" }, "geometry": { "type": "Polygon", "coordinates": [ [ [ 79.895060261879905, 12.933093804153581 ], [ 79.895126336588234, 12.933089422040432 ], [ 79.895125555675691, 12.933179113710279 ], [ 79.895063316906246, 12.933181283029091 ], [ 79.895060261879905, 12.933093804153581 ] ] ] } },
{ "type": "Feature", "properties": { "footprint_id": "BLD-0005", "source_tile_id": "TILE-BLK-02", "model": "UNet-v1", "confidence": 0.936, "feature_type": "building" }, "geometry": { "type": "Polygon", "coordinates": [ [ [ 79.895197706892873, 12.933092286109533 ], [ 79.895256787669226, 12.933091654412909 ], [ 79.895255043901855, 12.933171586922249 ], [ 79.895197680402347, 12.933174158274852 ], [ 79.895197706892873, 12.933092286109533 ] ] ] } },
{ "type": "Feature", "properties": { "footprint_id": "BLD-0006", "source_tile_id": "TILE-BLK-02", "model": "UNet-v1", "confidence": 0.886, "feature_type": "building" }, "geometry": { "type": "Polygon", "coordinates": [ [ [ 79.895325257135084, 12.933095079125692 ], [ 79.895386061861913, 12.933092250821684 ], [ 79.895386234507626, 12.933188729925147 ], [ 79.895322921678783, 12.933183376333469 ], [ 79.895325257135084, 12.933095079125692 ] ] ] } },
{ "type": "Feature", "properties": { "footprint_id": "BLD-0007", "source_tile_id": "TILE-BLK-02", "model": "SAM-ViT-B", "confidence": 0.838, "feature_type": "building" }, "geometry": { "type": "Polygon", "coordinates": [ [ [ 79.895067270278332, 12.933251909764738 ], [ 79.895127181037637, 12.93325026084376 ], [ 79.895127904515761, 12.933338381791827 ], [ 79.895068128465098, 12.93334201172495 ], [ 79.895067270278332, 12.933251909764738 ] ] ] } },
{ "type": "Feature", "properties": { "footprint_id": "BLD-0008", "source_tile_id": "TILE-BLK-02", "model": "SAM-ViT-B", "confidence": 0.794, "feature_type": "building" }, "geometry": { "type": "Polygon", "coordinates": [ [ [ 79.895187964469145, 12.933257984666083 ], [ 79.895257350731185, 12.933254663721513 ], [ 79.895252983650806, 12.933342602704466 ], [ 79.895185162368364, 12.933339011120939 ], [ 79.895187964469145, 12.933257984666083 ] ] ] } },
{ "type": "Feature", "properties": { "footprint_id": "BLD-0009", "source_tile_id": "TILE-BLK-02", "model": "UNet-v1", "confidence": 0.824, "feature_type": "building" }, "geometry": { "type": "Polygon", "coordinates": [ [ [ 79.895193948883488, 12.933415275747127 ], [ 79.895254452873971, 12.9334112156691 ], [ 79.895253208718387, 12.933495007649707 ], [ 79.895195777312495, 12.933493374210775 ], [ 79.895193948883488, 12.933415275747127 ] ] ] } },
{ "type": "Feature", "properties": { "footprint_id": "BLD-0010", "source_tile_id": "TILE-BLK-03", "model": "SAM-ViT-B", "confidence": 0.561, "feature_type": "building" }, "geometry": { "type": "Polygon", "coordinates": [ [ [ 79.896566422157605, 12.933116511129176 ], [ 79.896630488677332, 12.933118841344992 ], [ 79.896628911170467, 12.933199649372071 ], [ 79.896565321273826, 12.933201808419861 ], [ 79.896566422157605, 12.933116511129176 ] ] ] } },
{ "type": "Feature", "properties": { "footprint_id": "BLD-0011", "source_tile_id": "TILE-BLK-03", "model": "UNet-v1", "confidence": 0.832, "feature_type": "building" }, "geometry": { "type": "Polygon", "coordinates": [ [ [ 79.896648915016243, 12.933093225024852 ], [ 79.896716652241579, 12.933095839333788 ], [ 79.896714192549183, 12.933181819272468 ], [ 79.89664588788014, 12.93318105804688 ], [ 79.896648915016243, 12.933093225024852 ] ] ] } },
{ "type": "Feature", "properties": { "footprint_id": "BLD-0012", "source_tile_id": "TILE-BLK-03", "model": "SAM-ViT-B", "confidence": 0.943, "feature_type": "building" }, "geometry": { "type": "Polygon", "coordinates": [ [ [ 79.896394911803128, 12.933268339299651 ], [ 79.896458589832363, 12.933269488711121 ], [ 79.896456850856765, 12.93334551044102 ], [ 79.89639352854644, 12.933349423670899 ], [ 79.896394911803128, 12.933268339299651 ] ] ] } },
{ "type": "Feature", "properties": { "footprint_id": "BLD-0013", "source_tile_id": "TILE-BLK-03", "model": "UNet-v1", "confidence": 0.814, "feature_type": "building" }, "geometry": { "type": "Polygon", "coordinates": [ [ [ 79.896525569951478, 12.933255311515987 ], [ 79.896582404816726, 12.933251004273181 ], [ 79.896584345589886, 12.933344045144905 ], [ 79.896523486820925, 12.933346993671053 ], [ 79.896525569951478, 12.933255311515987 ] ] ] } },
{ "type": "Feature", "properties": { "footprint_id": "BLD-0014", "source_tile_id": "TILE-BLK-03", "model": "UNet-v1", "confidence": 0.912, "feature_type": "building" }, "geometry": { "type": "Polygon", "coordinates": [ [ [ 79.896387464454278, 12.933421971736397 ], [ 79.896450887910689, 12.933421262867066 ], [ 79.896451788829992, 12.933508412037479 ], [ 79.896388278410726, 12.933505830408928 ], [ 79.896387464454278, 12.933421971736397 ] ] ] } },
{ "type": "Feature", "properties": { "footprint_id": "BLD-0015", "source_tile_id": "TILE-BLK-04", "model": "SAM-ViT-B", "confidence": 0.944, "feature_type": "building" }, "geometry": { "type": "Polygon", "coordinates": [ [ [ 79.893736699110178, 12.934390217755331 ], [ 79.893799637738994, 12.934388008051226 ], [ 79.893795897376265, 12.934474563793882 ], [ 79.893733582306467, 12.934477840907238 ], [ 79.893736699110178, 12.934390217755331 ] ] ] } },
{ "type": "Feature", "properties": { "footprint_id": "BLD-0016", "source_tile_id": "TILE-BLK-04", "model": "SAM-ViT-B", "confidence": 0.819, "feature_type": "building" }, "geometry": { "type": "Polygon", "coordinates": [ [ [ 79.89398927740622, 12.934385016600869 ], [ 79.894056664757372, 12.934382778680758 ], [ 79.894055972560693, 12.934475673831701 ], [ 79.893988701836093, 12.934475413915997 ], [ 79.89398927740622, 12.934385016600869 ] ] ] } },
{ "type": "Feature", "properties": { "footprint_id": "BLD-0017", "source_tile_id": "TILE-BLK-04", "model": "SAM-ViT-B", "confidence": 0.633, "feature_type": "building" }, "geometry": { "type": "Polygon", "coordinates": [ [ [ 79.893780724343998, 12.934574416467282 ], [ 79.893847582880596, 12.934572509054711 ], [ 79.89384868460732, 12.934662360508733 ], [ 79.893776601621411, 12.93465893841651 ], [ 79.893780724343998, 12.934574416467282 ] ] ] } },
{ "type": "Feature", "properties": { "footprint_id": "BLD-0018", "source_tile_id": "TILE-BLK-05", "model": "UNet-v1", "confidence": 0.914, "feature_type": "building" }, "geometry": { "type": "Polygon", "coordinates": [ [ [ 79.895057610423379, 12.934392639125864 ], [ 79.895117198947062, 12.934393659096648 ], [ 79.895119394422451, 12.934478725896279 ], [ 79.895060633633634, 12.934479478929017 ], [ 79.895057610423379, 12.934392639125864 ] ] ] } },
{ "type": "Feature", "properties": { "footprint_id": "BLD-0019", "source_tile_id": "TILE-BLK-05", "model": "UNet-v1", "confidence": 0.944, "feature_type": "building" }, "geometry": { "type": "Polygon", "coordinates": [ [ [ 79.895065844109396, 12.934558683631453 ], [ 79.895125842666687, 12.934556050565956 ], [ 79.895126165885742, 12.934642673969011 ], [ 79.895063832321952, 12.93464212370046 ], [ 79.895065844109396, 12.934558683631453 ] ] ] } },
{ "type": "Feature", "properties": { "footprint_id": "BLD-0020", "source_tile_id": "TILE-BLK-05", "model": "UNet-v1", "confidence": 0.89, "feature_type": "building" }, "geometry": { "type": "Polygon", "coordinates": [ [ [ 79.895186918136559, 12.934563634510386 ], [ 79.895253598255863, 12.934563496621884 ], [ 79.895252871725162, 12.934637303091051 ], [ 79.895186314383764, 12.934642281650158 ], [ 79.895186918136559, 12.934563634510386 ] ] ] } },
{ "type": "Feature", "properties": { "footprint_id": "BLD-0021", "source_tile_id": "TILE-BLK-05", "model": "SAM-ViT-B", "confidence": 0.966, "feature_type": "building" }, "geometry": { "type": "Polygon", "coordinates": [ [ [ 79.895188453476337, 12.934723720437766 ], [ 79.895251938576081, 12.934723212739261 ], [ 79.895253021896792, 12.934808584133522 ], [ 79.895188420510593, 12.934811661317275 ], [ 79.895188453476337, 12.934723720437766 ] ] ] } }
]
}
